[
    { "name": "Damascus", "name_ar": "دمشق", "lat": 33.5020, "lon": 36.2981 },
    { "name": "Aleppo", "name_ar": "حلب", "lat": 36.2319, "lon": 37.1681 },
    { "name": "Homs", "name_ar": "حمص", "lat": 34.7319, "lon": 36.7181 },
    { "name": "Latakia", "name_ar": "اللاذقية", "lat": 35.5400, "lon": 35.7800 },
    { "name": "Hamah", "name_ar": "حماة", "lat": 35.1503, "lon": 36.7300 },
    { "name": "Ar Raqqah", "name_ar": "الرقة", "lat": 35.9304, "lon": 39.0200 },
    { "name": "Dayr az Zawr", "name_ar": "دير الزور", "lat": 35.3304, "lon": 40.1300 },
    { "name": "Al Hasakah", "name_ar": "الحسكة", "lat": 36.4833, "lon": 40.7500 },
    { "name": "Al Qamishli", "name_ar": "القامشلي", "lat": 37.0300, "lon": 41.2300 },
    { "name": "Idlib", "name_ar": "إدلب", "lat": 35.9297, "lon": 36.6317 },
    { "name": "Qabr as Sitt", "name_ar": "قبر الست", "lat": 33.4466, "lon": 36.3364 },
    { "name": "Duma", "name_ar": "دوما", "lat": 33.5833, "lon": 36.4000 },
    { "name": "Jaramana", "name_ar": "جرمانا", "lat": 33.4862, "lon": 36.3461 },
    { "name": "As Salamiyah", "name_ar": "السلمية", "lat": 35.0113, "lon": 37.0532 },
    { "name": "As Safirah", "name_ar": "السفيرة", "lat": 36.0770, "lon": 37.3725 },
    { "name": "Al Hajar al Aswad", "name_ar": "الحجر الأسود", "lat": 33.4576, "lon": 36.3042 },
    { "name": "Ma`arrat an Nu`man", "name_ar": "معرة النعمان", "lat": 35.6483, "lon": 36.6769 },
    { "name": "Tartus", "name_ar": "طرطوس", "lat": 34.8846, "lon": 35.8866 },
    { "name": "Darayya", "name_ar": "داريا", "lat": 33.4583, "lon": 36.2326 },
    { "name": "Ath Thawrah", "name_ar": "الثورة", "lat": 35.8367, "lon": 38.5481 },
    { "name": "Manbij", "name_ar": "منبج", "lat": 36.5266, "lon": 37.9563 },
    { "name": "Jablah", "name_ar": "جبلة", "lat": 35.3621, "lon": 35.9276 },
    { "name": "Al Qurayya", "name_ar": "القريا", "lat": 34.9563, "lon": 40.5414 },
    { "name": "As Suwayda'", "name_ar": "السويداء", "lat": 32.7004, "lon": 36.5666 },
    { "name": "Nawa", "name_ar": "نوى", "lat": 32.8865, "lon": 36.0390 },
    { "name": "At Tall", "name_ar": "التل", "lat": 33.6103, "lon": 36.3107 },
    { "name": "Ar Rastan", "name_ar": "الرستن", "lat": 34.9267, "lon": 36.7324 },
    { "name": "Khan Shaykhun", "name_ar": "خان شيخون", "lat": 35.4421, "lon": 36.6509 },
    { "name": "Albu Kamal", "name_ar": "البوكمال", "lat": 34.4504, "lon": 40.9186 },
    { "name": "Tadmur", "name_ar": "تدمر", "lat": 34.5504, "lon": 38.2833 },
    { "name": "Babila", "name_ar": "ببيلا", "lat": 33.4710, "lon": 36.3308 },
    { "name": "Al Mayadin", "name_ar": "الميادين", "lat": 35.0198, "lon": 40.4515 },
    { "name": "An Nabk", "name_ar": "النبك", "lat": 34.0170, "lon": 36.7333 },
    { "name": "Ash Shaykh Badr", "name_ar": "الشيخ بدر", "lat": 34.9917, "lon": 36.0835 },
    { "name": "`Amuda", "name_ar": "عامودا", "lat": 37.1042, "lon": 40.9300 },
    { "name": "Yabrud", "name_ar": "يبرود", "lat": 33.9692, "lon": 36.6573 },
    { "name": "Al Qusayr", "name_ar": "القصير", "lat": 34.5078, "lon": 36.5803 },
    { "name": "Harasta", "name_ar": "حرستا", "lat": 33.5587, "lon": 36.3652 },
    { "name": "Tallbisah", "name_ar": "تلبيسة", "lat": 34.8407, "lon": 36.7309 },
    { "name": "`Ayn al `Arab", "name_ar": "عين العرب", "lat": 36.8910, "lon": 38.3535 },
    { "name": "Zamalka", "name_ar": "زملكا", "lat": 33.5261, "lon": 36.3538 },
    { "name": "Jisr ash Shughur", "name_ar": "جسر الشغور", "lat": 35.8142, "lon": 36.3198 },
    { "name": "Al Kiswah", "name_ar": "الكسوة", "lat": 33.3581, "lon": 36.2419 },
    { "name": "Baniyas", "name_ar": "بانياس", "lat": 35.1819, "lon": 35.9487 },
    { "name": "Tadif", "name_ar": "تادف", "lat": 36.3481, "lon": 37.5309 },
    { "name": "Jayrud", "name_ar": "جيرود", "lat": 33.8071, "lon": 36.7386 },
    { "name": "Saraqib", "name_ar": "سراقب", "lat": 35.8645, "lon": 36.8059 },
    { "name": "Al Malikiyah", "name_ar": "المالكية", "lat": 37.1770, "lon": 42.1401 }
]
